start=new Date('2022-11-02T00:00:00.000Z').valueOf();
sats=[{"MEAN_ELEMENT_THEORY":"SGP4","REV_AT_EPOCH":"130","TLE_LINE2":"2 53500  97.6562  65.2554 0003142  23.1813 200.2782 15.01310585  1309","TLE_LINE1":"1 53500U 22099AM  22305.91667824 -.00082453  00000-0 -64807-2 0  9991","MEAN_MOTION_DDOT":"0.0000000000000","COUNTRY_CODE":"US","GP_ID":"216688123","SEMIMAJOR_AXIS":"6940.991","EPOCH":"2022-11-01T22:00:00.999936","REF_FRAME":"TEME","DECAY_DATE":null,"OBJECT_ID":"2022-099AM","BSTAR":"-0.00648070000000","ECCENTRICITY":"0.00031420","MEAN_MOTION_DOT":"-0.00082453","MEAN_ANOMALY":"200.2782","SITE":"AFWTR","RA_OF_ASC_NODE":"65.2554","MEAN_MOTION":"15.01310585","LAUNCH_DATE":"2022-08-12","INCLINATION":"97.6562","OBJECT_TYPE":"PAYLOAD","PERIAPSIS":"560.675","ARG_OF_PERICENTER":"23.1813","APOAPSIS":"565.037","FILE":"3640431","PERIOD":"95.916","NORAD_CAT_ID":"53500","CENTER_NAME":"EARTH","RCS_SIZE":"LARGE","OBJECT_NAME":"STARLINK-4455","EPHEMERIS_TYPE":"0","CLASSIFICATION_TYPE":"U","ELEMENT_SET_NO":"999","TIME_SYSTEM":"UTC"},{"SITE":"AFWTR","RA_OF_ASC_NODE":"65.2537","MEAN_MOTION":"15.01311556","MEAN_ANOMALY":"228.6290","PERIAPSIS":"561.088","ARG_OF_PERICENTER":"34.7857","LAUNCH_DATE":"2022-08-12","INCLINATION":"97.6549","OBJECT_TYPE":"PAYLOAD","PERIOD":"95.916","NORAD_CAT_ID":"53501","CENTER_NAME":"EARTH","APOAPSIS":"564.618","FILE":"3640431","EPHEMERIS_TYPE":"0","CLASSIFICATION_TYPE":"U","ELEMENT_SET_NO":"999","TIME_SYSTEM":"UTC","RCS_SIZE":"LARGE","OBJECT_NAME":"STARLINK-4434","REV_AT_EPOCH":"130","TLE_LINE2":"2 53501  97.6549  65.2537 0002543  34.7857 228.6290 15.01311556  1303","MEAN_ELEMENT_THEORY":"SGP4","SEMIMAJOR_AXIS":"6940.988","GP_ID":"216688872","EPOCH":"2022-11-01T22:00:00.999936","REF_FRAME":"TEME","MEAN_MOTION_DDOT":"0.0000000000000","TLE_LINE1":"1 53501U 22099AN  22305.91667824 -.00055665  00000-0 -43573-2 0  9994","COUNTRY_CODE":"US","BSTAR":"-0.00435730000000","DECAY_DATE":null,"OBJECT_ID":"2022-099AN","ECCENTRICITY":"0.00025430","MEAN_MOTION_DOT":"-0.00055665"},{"REF_FRAME":"TEME","EPOCH":"2022-11-01T22:00:00.999936","SEMIMAJOR_AXIS":"6941.079","GP_ID":"216687870","COUNTRY_CODE":"US","TLE_LINE1":"1 53502U 22099AP  22305.91667824 -.00027770  00000-0 -21646-2 0  9998","MEAN_MOTION_DDOT":"0.0000000000000","TLE_LINE2":"2 53502  97.6566  65.2561 0002603  33.1573 210.3052 15.01282168  1305","REV_AT_EPOCH":"130","MEAN_ELEMENT_THEORY":"SGP4","MEAN_MOTION_DOT":"-0.00027770","ECCENTRICITY":"0.00026030","BSTAR":"-0.00216460000000","OBJECT_ID":"2022-099AP","DECAY_DATE":null,"ARG_OF_PERICENTER":"33.1573","PERIAPSIS":"561.137","OBJECT_TYPE":"PAYLOAD","INCLINATION":"97.6566","LAUNCH_DATE":"2022-08-12","MEAN_MOTION":"15.01282168","RA_OF_ASC_NODE":"65.2561","SITE":"AFWTR","MEAN_ANOMALY":"210.3052","ELEMENT_SET_NO":"999","TIME_SYSTEM":"UTC","CLASSIFICATION_TYPE":"U","EPHEMERIS_TYPE":"0","OBJECT_NAME":"STARLINK-4435","RCS_SIZE":"LARGE","PERIOD":"95.918","CENTER_NAME":"EARTH","NORAD_CAT_ID":"53502","FILE":"3640431","APOAPSIS":"564.750"},{"NORAD_CAT_ID":"53503","PERIOD":"95.917","CENTER_NAME":"EARTH","FILE":"3640431","APOAPSIS":"564.623","ELEMENT_SET_NO":"999","TIME_SYSTEM":"UTC","CLASSIFICATION_TYPE":"U","EPHEMERIS_TYPE":"0","OBJECT_NAME":"STARLINK-4461","RCS_SIZE":"LARGE","MEAN_MOTION":"15.01294534","RA_OF_ASC_NODE":"65.2540","SITE":"AFWTR","MEAN_ANOMALY":"232.1296","ARG_OF_PERICENTER":"41.3616","PERIAPSIS":"561.187","OBJECT_TYPE":"PAYLOAD","INCLINATION":"97.6569","LAUNCH_DATE":"2022-08-12","BSTAR":"-0.00538750000000","OBJECT_ID":"2022-099AQ","DECAY_DATE":null,"MEAN_MOTION_DOT":"-0.00068655","ECCENTRICITY":"0.00024750","TLE_LINE2":"2 53503  97.6569  65.2540 0002475  41.3616 232.1296 15.01294534  1304","REV_AT_EPOCH":"130","MEAN_ELEMENT_THEORY":"SGP4","REF_FRAME":"TEME","EPOCH":"2022-11-01T22:00:00.999936","GP_ID":"216688705","SEMIMAJOR_AXIS":"6941.040","COUNTRY_CODE":"US","MEAN_MOTION_DDOT":"0.0000000000000","TLE_LINE1":"1 53503U 22099AQ  22305.91667824 -.00068655  00000-0 -53875-2 0  9995"},{"OBJECT_NAME":"STARLINK-4448","RCS_SIZE":"LARGE","ELEMENT_SET_NO":"999","TIME_SYSTEM":"UTC","CLASSIFICATION_TYPE":"U","EPHEMERIS_TYPE":"0","FILE":"3640431","APOAPSIS":"564.723","PERIOD":"95.917","NORAD_CAT_ID":"53504","CENTER_NAME":"EARTH","OBJECT_TYPE":"PAYLOAD","INCLINATION":"97.6559","LAUNCH_DATE":"2022-08-12","ARG_OF_PERICENTER":"31.4917","PERIAPSIS":"561.061","MEAN_ANOMALY":"221.9606","MEAN_MOTION":"15.01298901","RA_OF_ASC_NODE":"65.2548","SITE":"AFWTR","MEAN_MOTION_DOT":"-0.00054918","ECCENTRICITY":"0.00026380","OBJECT_ID":"2022-099AR","DECAY_DATE":null,"BSTAR":"-0.00429970000000","COUNTRY_CODE":"US","TLE_LINE1":"1 53504U 22099AR  22305.91667824 -.00054918  00000-0 -42997-2 0  9996","MEAN_MOTION_DDOT":"0.0000000000000","REF_FRAME":"TEME","EPOCH":"2022-11-01T22:00:00.999936","GP_ID":"216687705","SEMIMAJOR_AXIS":"6941.027","MEAN_ELEMENT_THEORY":"SGP4","TLE_LINE2":"2 53504  97.6559  65.2548 0002638  31.4917 221.9606 15.01298901  1300","REV_AT_EPOCH":"130"},{"PERIOD":"95.916","CENTER_NAME":"EARTH","NORAD_CAT_ID":"53505","FILE":"3640431","APOAPSIS":"564.378","TIME_SYSTEM":"UTC","ELEMENT_SET_NO":"999","CLASSIFICATION_TYPE":"U","EPHEMERIS_TYPE":"0","OBJECT_NAME":"STARLINK-4446","RCS_SIZE":"LARGE","MEAN_MOTION":"15.01311435","RA_OF_ASC_NODE":"65.2520","SITE":"AFWTR","MEAN_ANOMALY":"245.4492","ARG_OF_PERICENTER":"47.9986","PERIAPSIS":"561.328","OBJECT_TYPE":"PAYLOAD","LAUNCH_DATE":"2022-08-12","INCLINATION":"97.6562","BSTAR":"-0.00597950000000","OBJECT_ID":"2022-099AS","DECAY_DATE":null,"MEAN_MOTION_DOT":"-0.00076145","ECCENTRICITY":"0.00021970","TLE_LINE2":"2 53505  97.6562  65.2520 0002197  47.9986 245.4492 15.01311435  1305","REV_AT_EPOCH":"130","MEAN_ELEMENT_THEORY":"SGP4","REF_FRAME":"TEME","EPOCH":"2022-11-01T22:00:00.999936","SEMIMAJOR_AXIS":"6940.988","GP_ID":"216688620","COUNTRY_CODE":"US","MEAN_MOTION_DDOT":"0.0000000000000","TLE_LINE1":"1 53505U 22099AS  22305.91667824 -.00076145  00000-0 -59795-2 0  9997"},{"COUNTRY_CODE":"US","TLE_LINE1":"1 53506U 22099AT  22305.91667824 -.00055498  00000-0 -43452-2 0  9999","MEAN_MOTION_DDOT":"0.0000000000000","EPOCH":"2022-11-01T22:00:00.999936","REF_FRAME":"TEME","SEMIMAJOR_AXIS":"6941.015","GP_ID":"216688289","MEAN_ELEMENT_THEORY":"SGP4","REV_AT_EPOCH":"130","TLE_LINE2":"2 53506  97.6561  65.2549 0002199  39.2657 242.8177 15.01302677  1306","MEAN_MOTION_DOT":"-0.00055498","ECCENTRICITY":"0.00021990","OBJECT_ID":"2022-099AT","DECAY_DATE":null,"BSTAR":"-0.00434520000000","OBJECT_TYPE":"PAYLOAD","INCLINATION":"97.6561","LAUNCH_DATE":"2022-08-12","PERIAPSIS":"561.354","ARG_OF_PERICENTER":"39.2657","MEAN_ANOMALY":"242.8177","RA_OF_ASC_NODE":"65.2549","MEAN_MOTION":"15.01302677","SITE":"AFWTR","RCS_SIZE":"LARGE","OBJECT_NAME":"STARLINK-4437","ELEMENT_SET_NO":"999","TIME_SYSTEM":"UTC","EPHEMERIS_TYPE":"0","CLASSIFICATION_TYPE":"U","FILE":"3640431","APOAPSIS":"564.407","CENTER_NAME":"EARTH","PERIOD":"95.917","NORAD_CAT_ID":"53506"},{"GP_ID":"216688453","SEMIMAJOR_AXIS":"6940.986","REF_FRAME":"TEME","EPOCH":"2022-11-01T22:00:00.999936","TLE_LINE1":"1 53507U 22099AU  22305.91667824 -.00087971  00000-0 -69203-2 0  9993","MEAN_MOTION_DDOT":"0.0000000000000","COUNTRY_CODE":"US","TLE_LINE2":"2 53507  97.6566  65.2525 0002198  48.6898 254.7600 15.01312085  1303","REV_AT_EPOCH":"130","MEAN_ELEMENT_THEORY":"SGP4","ECCENTRICITY":"0.00021980","MEAN_MOTION_DOT":"-0.00087971","BSTAR":"-0.00692030000000","DECAY_DATE":null,"OBJECT_ID":"2022-099AU","ARG_OF_PERICENTER":"48.6898","PERIAPSIS":"561.326","LAUNCH_DATE":"2022-08-12","INCLINATION":"97.6566","OBJECT_TYPE":"PAYLOAD","SITE":"AFWTR","MEAN_MOTION":"15.01312085","RA_OF_ASC_NODE":"65.2525","MEAN_ANOMALY":"254.7600","CLASSIFICATION_TYPE":"U","EPHEMERIS_TYPE":"0","ELEMENT_SET_NO":"999","TIME_SYSTEM":"UTC","OBJECT_NAME":"STARLINK-4444","RCS_SIZE":"LARGE","NORAD_CAT_ID":"53507","PERIOD":"95.916","CENTER_NAME":"EARTH","APOAPSIS":"564.377","FILE":"3640431"},{"GP_ID":"216688124","SEMIMAJOR_AXIS":"6941.042","REF_FRAME":"TEME","EPOCH":"2022-11-01T22:00:00.999936","TLE_LINE1":"1 53508U 22099AV  22305.91667824 -.00040552  00000-0 -31678-2 0  9993","MEAN_MOTION_DDOT":"0.0000000000000","COUNTRY_CODE":"US","TLE_LINE2":"2 53508  97.6555  65.2544 0002345  43.2198 240.2148 15.01293874  1302","REV_AT_EPOCH":"130","MEAN_ELEMENT_THEORY":"SGP4","ECCENTRICITY":"0.00023450","MEAN_MOTION_DOT":"-0.00040552","BSTAR":"-0.00316780000000","DECAY_DATE":null,"OBJECT_ID":"2022-099AV","ARG_OF_PERICENTER":"43.2198","PERIAPSIS":"561.280","LAUNCH_DATE":"2022-08-12","INCLINATION":"97.6555","OBJECT_TYPE":"PAYLOAD","SITE":"AFWTR","MEAN_MOTION":"15.01293874","RA_OF_ASC_NODE":"65.2544","MEAN_ANOMALY":"240.2148","CLASSIFICATION_TYPE":"U","EPHEMERIS_TYPE":"0","ELEMENT_SET_NO":"999","TIME_SYSTEM":"UTC","OBJECT_NAME":"STARLINK-4443","RCS_SIZE":"LARGE","PERIOD":"95.917","NORAD_CAT_ID":"53508","CENTER_NAME":"EARTH","APOAPSIS":"564.535","FILE":"3640431"},{"MEAN_MOTION_DDOT":"0.0000000000000","TLE_LINE1":"1 53509U 22099AW  22305.91667824 -.00071390  00000-0 -56025-2 0  9991","COUNTRY_CODE":"US","GP_ID":"216688873","SEMIMAJOR_AXIS":"6940.997","EPOCH":"2022-11-01T22:00:00.999936","REF_FRAME":"TEME","MEAN_ELEMENT_THEORY":"SGP4","REV_AT_EPOCH":"130","TLE_LINE2":"2 53509  97.6558  65.2513 0002065  47.6136 274.4957 15.01308733  1309","ECCENTRICITY":"0.00020650","MEAN_MOTION_DOT":"-0.00071390","DECAY_DATE":null,"OBJECT_ID":"2022-099AW","BSTAR":"-0.00560250000000","INCLINATION":"97.6558","LAUNCH_DATE":"2022-08-12","OBJECT_TYPE":"PAYLOAD","PERIAPSIS":"561.428","ARG_OF_PERICENTER":"47.6136","MEAN_ANOMALY":"274.4957","SITE":"AFWTR","RA_OF_ASC_NODE":"65.2513","MEAN_MOTION":"15.01308733","RCS_SIZE":"LARGE","OBJECT_NAME":"STARLINK-4402","EPHEMERIS_TYPE":"0","CLASSIFICATION_TYPE":"U","ELEMENT_SET_NO":"999","TIME_SYSTEM":"UTC","APOAPSIS":"564.295","FILE":"3640431","NORAD_CAT_ID":"53509","PERIOD":"95.916","CENTER_NAME":"EARTH"}];
